OBJECT_NAME,OBJECT_ID,EPOCH,MEAN_MOTION,ECCENTRICITY,INCLINATION,RA_OF_ASC_NODE,ARG_OF_PERICENTER,MEAN_ANOMALY,EPHEMERIS_TYPE,CLASSIFICATION_TYPE,NORAD_CAT_ID,ELEMENT_SET_NO,REV_AT_EPOCH,BSTAR,MEAN_MOTION_DOT,MEAN_MOTION_DDOT,RMS,DATA_SOURCE
STARLINK-1309,2020-019BG,2023-06-05T12:31:42.000096,15.06471716,.0000892,53.0554,342.4573,87.9084,280.9396,0,C,45414,156,1,-.4343E-2,-.64833E-3,0,0.526,SpaceX-E
STARLINK-1316,2020-019BH,2023-06-05T12:28:42.000384,15.06471637,.0001085,53.0540,342.4665,80.8680,136.6775,0,C,45415,156,1,-.4596E-2,-.68603E-3,0,0.548,SpaceX-E
STARLINK-1318,2020-019BJ,2023-06-05T12:21:41.999616,15.06467295,.0000921,53.0542,342.4926,85.6903,285.5125,0,C,45416,156,1,-.4353E-2,-.64975E-3,0,0.539,SpaceX-E
STARLINK-1286,2020-019BK,2023-06-05T12:27:41.999904,15.06454695,.0000949,53.0539,12.4731,93.6791,275.1130,0,C,45417,156,1,-.32198E-2,-.48066E-3,0,0.619,SpaceX-E
STARLINK-1308,2020-019BM,2023-06-05T12:22:42.000096,15.06470575,.0001179,53.0533,12.4923,85.4999,284.4419,0,C,45419,156,1,-.37947E-2,-.56659E-3,0,0.680,SpaceX-E
STARLINK-1329,2020-025A,2023-06-05T11:58:41.999808,15.06461321,.0000581,53.0537,312.5602,81.0763,8.4384,0,C,45531,156,1,-.43504E-2,-.64924E-3,0,0.503,SpaceX-E
STARLINK-1338,2020-025B,2023-06-05T12:04:42.000096,15.06460313,.0000726,53.0544,312.5417,78.5960,333.5336,0,C,45532,156,1,-.42976E-2,-.64137E-3,0,0.477,SpaceX-E
STARLINK-1341,2020-025D,2023-06-05T12:21:41.999616,15.06490250,.0000854,53.0547,312.4901,69.0553,347.1349,0,C,45534,156,1,-.62714E-2,-.93594E-3,0,0.603,SpaceX-E
STARLINK-1350,2020-025E,2023-06-05T12:30:41.999616,15.06461622,.0001099,53.0549,312.4594,95.4652,254.6561,0,C,45535,156,1,-.47191E-2,-.70419E-3,0,0.582,SpaceX-E
STARLINK-1352,2020-025F,2023-06-05T11:59:42.000288,15.06463724,.0001061,53.0552,312.5574,80.4250,132.8720,0,C,45536,156,1,-.46849E-2,-.69913E-3,0,0.575,SpaceX-E
STARLINK-1362,2020-025H,2023-06-05T11:27:41.999616,15.06458692,.0000912,53.0543,312.6602,85.0219,227.6897,0,C,45538,156,1,-.41375E-2,-.61749E-3,0,0.489,SpaceX-E
STARLINK-1368,2020-025K,2023-06-05T12:06:42.000192,15.06462254,.0001012,53.0550,312.5360,76.8679,142.8006,0,C,45540,156,1,-.4557E-2,-.68005E-3,0,0.551,SpaceX-E
STARLINK-1369,2020-025L,2023-06-05T12:13:42.000096,15.06459288,.0001044,53.0550,312.5143,85.9158,140.1399,0,C,45541,156,1,-.43055E-2,-.64253E-3,0,0.553,SpaceX-E
STARLINK-1371,2020-025M,2023-06-05T12:11:42.000000,15.06468688,.0000859,53.0543,312.5191,80.0419,318.4641,0,C,45542,156,1,-.47178E-2,-.70412E-3,0,0.498,SpaceX-E
STARLINK-1372,2020-025N,2023-06-05T12:14:41.999712,15.06471546,.0001146,53.0553,312.5118,82.1493,127.6996,0,C,45543,156,1,-.52917E-2,-.78966E-3,0,0.585,SpaceX-E
STARLINK-1373,2020-025P,2023-06-05T11:58:41.999808,15.06457209,.0000613,53.0537,312.5598,71.8344,337.6856,0,C,45544,156,1,-.41605E-2,-.62089E-3,0,0.471,SpaceX-E
STARLINK-1374,2020-025Q,2023-06-05T12:20:42.000000,15.06505285,.0001068,53.0551,312.4906,76.5756,315.8530,0,C,45545,156,1,-.69842E-2,-.104245E-2,0,0.639,SpaceX-E
STARLINK-1375,2020-025R,2023-06-05T12:21:41.999616,15.06462873,.0000967,53.0554,312.4908,77.7435,258.4672,0,C,45546,156,1,-.47206E-2,-.70443E-3,0,0.590,SpaceX-E
STARLINK-1377,2020-025S,2023-06-05T12:17:42.000288,15.06473303,.0001028,53.0547,312.5013,84.3023,256.8181,0,C,45547,156,1,-.4989E-2,-.74461E-3,0,0.479,SpaceX-E
STARLINK-1378,2020-025T,2023-06-05T12:29:42.000000,15.06456428,.0001058,53.0539,312.4679,84.0681,162.2701,0,C,45548,156,1,-.42441E-2,-.63334E-3,0,0.532,SpaceX-E
STARLINK-1390,2020-025V,2023-06-05T12:11:42.000000,15.06458259,.0001059,53.0553,312.2551,85.4729,138.3394,0,C,45550,156,1,-.42177E-2,-.62944E-3,0,0.546,SpaceX-E
STARLINK-1294,2020-025W,2023-06-05T12:13:42.000096,15.06454458,.0000796,53.0542,292.5145,78.4256,357.6340,0,C,45551,156,1,-.42019E-2,-.62701E-3,0,0.569,SpaceX-E
STARLINK-1323,2020-025Y,2023-06-05T12:30:41.999616,15.06451560,.0001064,53.0545,292.4620,78.8538,1.2878,0,C,45553,156,1,-.43301E-2,-.64606E-3,0,0.541,SpaceX-E
STARLINK-1325,2020-025Z,2023-06-05T12:17:42.000288,15.06450156,.0000767,53.0545,292.4926,74.6044,1.6762,0,C,45554,156,1,-.42508E-2,-.63422E-3,0,0.558,SpaceX-E
STARLINK-1327,2020-025AA,2023-06-05T12:03:41.999616,15.06473228,.0001159,53.0555,292.5451,85.1887,133.1940,0,C,45555,156,1,-.51868E-2,-.77407E-3,0,0.529,SpaceX-E
STARLINK-1334,2020-025AB,2023-06-05T12:16:41.999808,15.06451506,.0000817,53.0537,292.5087,73.4515,333.9115,0,C,45556,156,1,-.42455E-2,-.63345E-3,0,0.549,SpaceX-E
STARLINK-1336,2020-025AC,2023-06-05T12:24:42.000192,15.06459647,.0000888,53.0543,292.4840,81.0608,316.4669,0,C,45557,156,1,-.44946E-2,-.6707E-3,0,0.562,SpaceX-E
STARLINK-1342,2020-025AD,2023-06-05T12:26:42.000288,15.06450043,.0001146,53.0553,292.4741,83.0493,142.0164,0,C,45558,156,1,-.42481E-2,-.63382E-3,0,0.643,SpaceX-E
STARLINK-1344,2020-025AE,2023-06-05T12:09:41.999904,15.06457493,.000089,53.0543,292.4822,74.1603,271.9817,0,C,45559,156,1,-.45237E-2,-.67499E-3,0,0.546,SpaceX-E
STARLINK-1346,2020-025AF,2023-06-05T12:26:42.000288,15.06442560,.0001084,53.0545,282.4626,85.6611,19.5703,0,C,45560,156,1,-.40091E-2,-.5981E-3,0,0.528,SpaceX-E
STARLINK-1354,2020-025AH,2023-06-05T12:24:42.000192,15.06464221,.000067,53.0545,292.4833,87.3613,250.1676,0,C,45562,156,1,-.50627E-2,-.7554E-3,0,0.588,SpaceX-E
STARLINK-1355,2020-025AJ,2023-06-05T12:16:41.999808,15.06449327,.0000964,53.0551,292.5069,72.6820,154.6901,0,C,45563,156,1,-.40131E-2,-.5988E-3,0,0.622,SpaceX-E
STARLINK-1356,2020-025AK,2023-06-05T12:09:41.999904,15.06454838,.0001059,53.0553,292.5258,85.3194,135.6844,0,C,45564,156,1,-.43756E-2,-.6529E-3,0,0.647,SpaceX-E
STARLINK-1357,2020-025AL,2023-06-05T11:58:41.999808,15.06471686,.0000949,53.0545,292.5589,78.7583,140.7818,0,C,45565,156,1,-.50654E-2,-.75595E-3,0,0.530,SpaceX-E
STARLINK-1358,2020-025AM,2023-06-05T12:26:42.000288,15.06452212,.0001007,53.0548,292.4760,57.1798,187.8762,0,C,45566,156,1,-.41668E-2,-.62175E-3,0,0.626,SpaceX-E
STARLINK-1361,2020-025AN,2023-06-05T11:54:41.999616,15.06456609,.0001128,53.0541,292.5763,82.8050,341.6693,0,C,45567,156,1,-.46116E-2,-.68808E-3,0,0.593,SpaceX-E
STARLINK-1363,2020-025AP,2023-06-05T12:22:42.000096,15.06450775,.0000831,53.0543,292.7281,78.0459,11.7819,0,C,45568,156,1,-.42548E-2,-.63483E-3,0,0.566,SpaceX-E
STARLINK-1366,2020-025AQ,2023-06-05T11:56:41.999712,15.06460204,.000066,53.0544,292.5676,99.8741,312.1521,0,C,45569,156,1,-.47704E-2,-.71178E-3,0,0.637,SpaceX-E
STARLINK-1376,2020-025AR,2023-06-05T11:54:41.999616,15.06470815,.0001115,53.0543,292.5756,78.7184,5.7741,0,C,45570,156,1,-.54148E-2,-.80797E-3,0,0.618,SpaceX-E
STARLINK-1261,2020-025AS,2023-06-05T03:52:41.999808,15.06456019,.000081,53.0543,284.0797,61.3029,281.9282,0,C,45571,156,1,-.21552E-2,-.32187E-3,0,0.863,SpaceX-E
STARLINK-1320,2020-025AT,2023-06-05T12:24:42.000192,15.08889952,.000121,53.0549,281.9951,322.0514,83.1873,0,C,45572,156,1,.12556E-2,.20064E-3,0,0.248,SpaceX-E
STARLINK-1321,2020-025AU,2023-06-05T12:25:41.999808,15.06443037,.00008,53.0541,282.4800,74.1453,202.1414,0,C,45573,156,1,-.36653E-2,-.54689E-3,0,0.603,SpaceX-E
STARLINK-1324,2020-025AV,2023-06-05T12:11:42.000000,15.06447635,.0001057,53.0548,282.5237,81.7331,1.7308,0,C,45574,156,1,-.34482E-2,-.5146E-3,0,0.473,SpaceX-E
STARLINK-1328,2020-025AX,2023-06-05T12:22:42.000096,15.06441480,.0001066,53.0542,282.4856,87.6969,257.2927,0,C,45576,156,1,-.35404E-2,-.52827E-3,0,0.638,SpaceX-E
STARLINK-1331,2020-025AZ,2023-06-05T12:32:41.999712,15.06441648,.0001019,53.0544,282.4535,74.7777,347.9066,0,C,45578,156,1,-.39423E-2,-.58814E-3,0,0.681,SpaceX-E
STARLINK-1332,2020-025BA,2023-06-05T12:01:42.000384,15.06419227,.0000985,53.0527,242.7194,82.2085,183.5489,0,C,45579,156,1,-.21321E-2,-.31812E-3,0,0.553,SpaceX-E
STARLINK-1333,2020-025BB,2023-06-05T12:25:41.999808,15.06456388,.0000902,53.0545,292.4805,103.3196,257.9719,0,C,45580,156,1,-.45388E-2,-.67723E-3,0,0.597,SpaceX-E
STARLINK-1335,2020-025BC,2023-06-05T12:34:41.999808,15.06444078,.0000865,53.0542,282.4498,98.8667,271.3728,0,C,45581,156,1,-.38556E-2,-.57526E-3,0,0.703,SpaceX-E
STARLINK-1337,2020-025BD,2023-06-05T11:42:41.999904,15.06446737,.0000918,53.0548,282.6122,81.5935,332.6434,0,C,45582,156,1,-.37717E-2,-.56279E-3,0,0.506,SpaceX-E
STARLINK-1340,2020-025BE,2023-06-05T12:12:41.999616,15.06467733,.0000415,53.0543,282.5174,55.4713,211.8571,0,C,45583,156,1,-.57145E-2,-.85251E-3,0,0.877,SpaceX-E
STARLINK-1343,2020-025BF,2023-06-05T12:16:41.999808,15.76737977,.0001134,53.0477,260.9740,61.6603,345.8873,0,C,45584,156,1,-.51994E-4,-.8529E-4,0,0.583,SpaceX-E
STARLINK-1347,2020-025BH,2023-06-05T12:31:42.000096,15.06439207,.0000761,53.0548,282.4593,75.0001,203.8924,0,C,45586,156,1,-.34556E-2,-.51559E-3,0,0.583,SpaceX-E
STARLINK-1349,2020-025BJ,2023-06-05T12:27:41.999904,15.06443655,.0001089,53.0549,282.4731,81.3723,342.4738,0,C,45587,156,1,-.38729E-2,-.57782E-3,0,0.690,SpaceX-E
STARLINK-1360,2020-025BK,2023-06-05T11:59:42.000288,15.06459100,.0000916,53.0541,282.5621,73.4951,4.8231,0,C,45588,156,1,-.47645E-2,-.71089E-3,0,0.580,SpaceX-E
STARLINK-1364,2020-025BL,2023-06-05T11:48:42.000192,15.06450676,.0000831,53.0544,282.5933,67.9498,348.8910,0,C,45589,156,1,-.41938E-2,-.62574E-3,0,0.528,SpaceX-E
STARLINK-1365,2020-025BM,2023-06-05T12:10:42.000384,15.06463640,.0000806,53.0535,312.5281,81.1227,333.6166,0,C,45590,156,1,-.44775E-2,-.66822E-3,0,0.485,SpaceX-E
STARLINK-1441,2020-035B,2023-06-05T12:17:42.000288,15.06449052,.0000908,53.0543,272.5008,73.7725,147.3555,0,C,45658,156,1,-.38673E-2,-.57708E-3,0,0.564,SpaceX-E
STARLINK-1442,2020-035C,2023-06-05T12:30:41.999616,15.06422887,.0001003,53.0543,272.4653,81.6110,173.5986,0,C,45659,156,1,-.23569E-2,-.35166E-3,0,0.593,SpaceX-E
STARLINK-1443,2020-035D,2023-06-05T12:02:42.000000,15.06435043,.0001018,53.0543,272.5471,74.8343,29.7834,0,C,45660,156,1,-.32985E-2,-.49213E-3,0,0.629,SpaceX-E
STARLINK-1444,2020-035E,2023-06-05T12:33:42.000192,15.06442351,.0001247,53.0538,272.4510,88.0039,33.4545,0,C,45661,156,1,-.40579E-2,-.60536E-3,0,0.679,SpaceX-E
